{"type": "FeatureCollection", "features": [ {"type": "Feature", "properties": {"norad_id": 31899, "name": "FENGYUN 1C DEB", "group": "fengyun-1c-debris", "lat": 40.94883105612253, "lon": -130.6352642491558, "alt_km": 843.9025328393782, "timestamp": "2025-12-04T03:47:54.827929+00:00", "meta": {"OBJECT_NAME": "FENGYUN 1C DEB", "OBJECT_ID": "1999-025CLA", "EPOCH": "2025-12-01T21:19:25.119552", "MEAN_MOTION": 13.83457638, "ECCENTRICITY": 0.01836306, "INCLINATION": 102.0844, "RA_OF_ASC_NODE": 35.7436, "ARG_OF_PERICENTER": 183.1699, "MEAN_ANOMALY": 176.8294, "EPHEMERIS_TYPE": 0, "CLASSIFICATION_TYPE": "U", "NORAD_CAT_ID": 31899, "ELEMENT_SET_NO": 999, "REV_AT_EPOCH": 67414, "BSTAR": 0.0017165998, "MEAN_MOTION_DOT": 2.087e-05, "MEAN_MOTION_DDOT": 0}, "tle": {"line1": "1 31899U 99025CLA 25335.88848518  .00002087  00000+0  17166-2 0  9992", "line2": "2 31899 102.0844  35.7436 0183630 183.1699 176.8294 13.83457638674144"}}, "geometry": {"type": "Point", "coordinates": [-130.6352642491558, 40.94883105612253]}}, {"type": "Feature", "properties": {"norad_id": 31901, "name": "FENGYUN 1C DEB", "group": "fengyun-1c-debris", "lat": -77.62800170182038, "lon": -16.481909767143012, "alt_km": 880.7377735713662, "timestamp": "2025-12-04T03:47:54.827940+00:00", "meta": {"OBJECT_NAME": "FENGYUN 1C DEB", "OBJECT_ID": "1999-025CLC", "EPOCH": "2025-11-24T16:49:26.112288", "MEAN_MOTION": 13.94131429, "ECCENTRICITY": 0.01304065, "INCLINATION": 98.5981, "RA_OF_ASC_NODE": 291.1031, "ARG_OF_PERICENTER": 239.8126, "MEAN_ANOMALY": 119.0067, "EPHEMERIS_TYPE": 0, "CLASSIFICATION_TYPE": "U", "NORAD_CAT_ID": 31901, "ELEMENT_SET_NO": 999, "REV_AT_EPOCH": 63156, "BSTAR": 0.00020072941, "MEAN_MOTION_DOT": 2.45e-06, "MEAN_MOTION_DDOT": 0}, "tle": {"line1": "1 31901U 99025CLC 25328.70099667  .00000245  00000+0  20073-3 0  9998", "line2": "2 31901  98.5981 291.1031 0130406 239.8126 119.0067 13.94131429631560"}}, "geometry": {"type": "Point", "coordinates": [-16.481909767143012, -77.62800170182038]}}, {"type": "Feature", "properties": {"norad_id": 31902, "name": "FENGYUN 1C DEB", "group": "fengyun-1c-debris", "lat": 51.609958864458456, "lon": 149.20536001815643, "alt_km": 719.2911600748739, "timestamp": "2025-12-04T03:47:54.827950+00:00", "meta": {"OBJECT_NAME": "FENGYUN 1C DEB", "OBJECT_ID": "1999-025CLD", "EPOCH": "2025-12-02T04:14:16.253664", "MEAN_MOTION": 14.23259815, "ECCENTRICITY": 0.01802185, "INCLINATION": 98.506, "RA_OF_ASC_NODE": 316.4015, "ARG_OF_PERICENTER": 179.9223, "MEAN_ANOMALY": 241.1553, "EPHEMERIS_TYPE": 0, "CLASSIFICATION_TYPE": "U", "NORAD_CAT_ID": 31902, "ELEMENT_SET_NO": 999, "REV_AT_EPOCH": 64641, "BSTAR": 0.00023773916, "MEAN_MOTION_DOT": 5.92e-06, "MEAN_MOTION_DDOT": 0}, "tle": {"line1": "1 31902U 99025CLD 25336.17657701  .00000592  00000+0  23774-3 0  9994", "line2": "2 31902  98.5060 316.4015 0180218 179.9223 241.1553 14.23259815646410"}}, "geometry": {"type": "Point", "coordinates": [149.20536001815643, 51.609958864458456]}}, {"type": "Feature", "properties": {"norad_id": 31903, "name": "FENGYUN 1C DEB", "group": "fengyun-1c-debris", "lat": -80.719452788638, "lon": 54.79408567337833, "alt_km": 780.1166838606514, "timestamp": "2025-12-04T03:47:54.827960+00:00", "meta": {"OBJECT_NAME": "FENGYUN 1C DEB", "OBJECT_ID": "1999-025CLE", "EPOCH": "2025-12-03T10:07:28.233120", "MEAN_MOTION": 14.60371594, "ECCENTRICITY": 0.0130509, "INCLINATION": 99.2737, "RA_OF_ASC_NODE": 324.7381, "ARG_OF_PERICENTER": 63.8956, "MEAN_ANOMALY": 297.5603, "EPHEMERIS_TYPE": 0, "CLASSIFICATION_TYPE": "U", "NORAD_CAT_ID": 31903, "ELEMENT_SET_NO": 999, "REV_AT_EPOCH": 97259, "BSTAR": 0.00098891, "MEAN_MOTION_DOT": 5.334e-05, "MEAN_MOTION_DDOT": 0}, "tle": {"line1": "1 31903U 99025CLE 25337.42185455  .00005334  00000+0  98891-3 0  9997", "line2": "2 31903  99.2737 324.7381 0130509  63.8956 297.5603 14.60371594972592"}}, "geometry": {"type": "Point", "coordinates": [54.79408567337833, -80.719452788638]}}, {"type": "Feature", "properties": {"norad_id": 31905, "name": "FENGYUN 1C DEB", "group": "fengyun-1c-debris", "lat": 47.805415356612116, "lon": 144.157486291995, "alt_km": 639.5955846394327, "timestamp": "2025-12-04T03:47:54.827970+00:00", "meta": {"OBJECT_NAME": "FENGYUN 1C DEB", "OBJECT_ID": "1999-025CLG", "EPOCH": "2025-12-02T09:18:23.956992", "MEAN_MOTION": 14.33047046, "ECCENTRICITY": 0.01967083, "INCLINATION": 99.1496, "RA_OF_ASC_NODE": 312.0469, "ARG_OF_PERICENTER": 123.9216, "MEAN_ANOMALY": 238.0844, "EPHEMERIS_TYPE": 0, "CLASSIFICATION_TYPE": "U", "NORAD_CAT_ID": 31905, "ELEMENT_SET_NO": 999, "REV_AT_EPOCH": 96476, "BSTAR": 0.00054589805, "MEAN_MOTION_DOT": 1.802e-05, "MEAN_MOTION_DDOT": 0}, "tle": {"line1": "1 31905U 99025CLG 25336.38777728  .00001802  00000+0  54590-3 0  9997", "line2": "2 31905  99.1496 312.0469 0196708 123.9216 238.0844 14.33047046964761"}}, "geometry": {"type": "Point", "coordinates": [144.157486291995, 47.805415356612116]}}, {"type": "Feature", "properties": {"norad_id": 31906, "name": "FENGYUN 1C DEB", "group": "fengyun-1c-debris", "lat": 21.856672909063796, "lon": 107.84385722961156, "alt_km": 832.6402133144375, "timestamp": "2025-12-04T03:47:54.827980+00:00", "meta": {"OBJECT_NAME": "FENGYUN 1C DEB", "OBJECT_ID": "1999-025CLH", "EPOCH": "2025-12-02T08:07:18.814944", "MEAN_MOTION": 14.24439435, "ECCENTRICITY": 0.00534026, "INCLINATION": 98.6932, "RA_OF_ASC_NODE": 109.5617, "ARG_OF_PERICENTER": 153.8908, "MEAN_ANOMALY": 261.8139, "EPHEMERIS_TYPE": 0, "CLASSIFICATION_TYPE": "U", "NORAD_CAT_ID": 31906, "ELEMENT_SET_NO": 999, "REV_AT_EPOCH": 94981, "BSTAR": 0.0030581492, "MEAN_MOTION_DOT": 7.149e-05, "MEAN_MOTION_DDOT": 0}, "tle": {"line1": "1 31906U 99025CLH 25336.33841221  .00007149  00000+0  30581-2 0  9996", "line2": "2 31906  98.6932 109.5617 0053402 153.8908 261.8139 14.24439435949815"}}, "geometry": {"type": "Point", "coordinates": [107.84385722961156, 21.856672909063796]}}, {"type": "Feature", "properties": {"norad_id": 31910, "name": "FENGYUN 1C DEB", "group": "fengyun-1c-debris", "lat": -79.8893874712801, "lon": 131.11874480244808, "alt_km": 712.9252135792685, "timestamp": "2025-12-04T03:47:54.827990+00:00", "meta": {"OBJECT_NAME": "FENGYUN 1C DEB", "OBJECT_ID": "1999-025CLM", "EPOCH": "2025-12-03T08:20:51.597024", "MEAN_MOTION": 14.47542002, "ECCENTRICITY": 0.022761, "INCLINATION": 97.666, "RA_OF_ASC_NODE": 359.4375, "ARG_OF_PERICENTER": 184.5972, "MEAN_ANOMALY": 175.3136, "EPHEMERIS_TYPE": 0, "CLASSIFICATION_TYPE": "U", "NORAD_CAT_ID": 31910, "ELEMENT_SET_NO": 999, "REV_AT_EPOCH": 64233, "BSTAR": 0.0010343, "MEAN_MOTION_DOT": 5.229e-05, "MEAN_MOTION_DDOT": 0}, "tle": {"line1": "1 31910U 99025CLM 25337.34781941  .00005229  00000+0  10343-2 0  9996", "line2": "2 31910  97.6660 359.4375 0227610 184.5972 175.3136 14.47542002642333"}}, "geometry": {"type": "Point", "coordinates": [131.11874480244808, -79.8893874712801]}}, {"type": "Feature", "properties": {"norad_id": 31913, "name": "FENGYUN 1C DEB", "group": "fengyun-1c-debris", "lat": -17.746534390147765, "lon": -97.87176325688822, "alt_km": 778.7429432912413, "timestamp": "2025-12-04T03:47:54.828000+00:00", "meta": {"OBJECT_NAME": "FENGYUN 1C DEB", "OBJECT_ID": "1999-025CLQ", "EPOCH": "2025-12-03T05:26:14.224128", "MEAN_MOTION": 13.90824416, "ECCENTRICITY": 0.020939, "INCLINATION": 99.292, "RA_OF_ASC_NODE": 258.1926, "ARG_OF_PERICENTER": 337.4087, "MEAN_ANOMALY": 21.7956, "EPHEMERIS_TYPE": 0, "CLASSIFICATION_TYPE": "U", "NORAD_CAT_ID": 31913, "ELEMENT_SET_NO": 999, "REV_AT_EPOCH": 55754, "BSTAR": 0.0095695, "MEAN_MOTION_DOT": 0.00014275, "MEAN_MOTION_DDOT": 0}, "tle": {"line1": "1 31913U 99025CLQ 25337.22655352  .00014275  00000+0  95695-2 0  9996", "line2": "2 31913  99.2920 258.1926 0209390 337.4087  21.7956 13.90824416557542"}}, "geometry": {"type": "Point", "coordinates": [-97.87176325688822, -17.746534390147765]}}, {"type": "Feature", "properties": {"norad_id": 31914, "name": "FENGYUN 1C DEB", "group": "fengyun-1c-debris", "lat": -54.47241469177701, "lon": -146.6392341187782, "alt_km": 826.4987399546671, "timestamp": "2025-12-04T03:47:54.828010+00:00", "meta": {"OBJECT_NAME": "FENGYUN 1C DEB", "OBJECT_ID": "1999-025CLR", "EPOCH": "2025-12-03T01:39:47.693664", "MEAN_MOTION": 14.55684518, "ECCENTRICITY": 0.01832375, "INCLINATION": 99.0289, "RA_OF_ASC_NODE": 199.3161, "ARG_OF_PERICENTER": 98.3204, "MEAN_ANOMALY": 263.8812, "EPHEMERIS_TYPE": 0, "CLASSIFICATION_TYPE": "U", "NORAD_CAT_ID": 31914, "ELEMENT_SET_NO": 999, "REV_AT_EPOCH": 68332, "BSTAR": 0.00018395271, "MEAN_MOTION_DOT": 9.45e-06, "MEAN_MOTION_DDOT": 0}, "tle": {"line1": "1 31914U 99025CLR 25337.06930201  .00000945  00000+0  18395-3 0  9990", "line2": "2 31914  99.0289 199.3161 0183237  98.3204 263.8812 14.55684518683326"}}, "geometry": {"type": "Point", "coordinates": [-146.6392341187782, -54.47241469177701]}}, {"type": "Feature", "properties": {"norad_id": 31915, "name": "FENGYUN 1C DEB", "group": "fengyun-1c-debris", "lat": -62.99618141176709, "lon": 13.591131867559248, "alt_km": 772.5268642952778, "timestamp": "2025-12-04T03:47:54.828020+00:00", "meta": {"OBJECT_NAME": "FENGYUN 1C DEB", "OBJECT_ID": "1999-025CLS", "EPOCH": "2025-11-30T23:47:28.383072", "MEAN_MOTION": 14.16141779, "ECCENTRICITY": 0.01011897, "INCLINATION": 98.6337, "RA_OF_ASC_NODE": 353.1748, "ARG_OF_PERICENTER": 303.9751, "MEAN_ANOMALY": 55.1839, "EPHEMERIS_TYPE": 0, "CLASSIFICATION_TYPE": "U", "NORAD_CAT_ID": 31915, "ELEMENT_SET_NO": 999, "REV_AT_EPOCH": 63941, "BSTAR": 0.00097857445, "MEAN_MOTION_DOT": 1.991e-05, "MEAN_MOTION_DDOT": 0}, "tle": {"line1": "1 31915U 99025CLS 25334.99130073  .00001991  00000+0  97857-3 0  9991", "line2": "2 31915  98.6337 353.1748 0101189 303.9751  55.1839 14.16141779639411"}}, "geometry": {"type": "Point", "coordinates": [13.591131867559248, -62.99618141176709]}}]}